STARLINK-36898          
1 68002U 26039S   26066.58334491 -.01611832  72937-3 -45294-2 0  9994
2 68002  42.9975  67.8213 0001817 269.3200  14.3367 15.92726809  2533
STARLINK-36862          
1 68003U 26039T   26066.58334491 -.01589087  71233-3 -44048-2 0  9995
2 68003  42.9975  67.8085 0001638 278.7007  10.0427 15.92984240  2536
STARLINK-36888          
1 68004U 26039U   26066.58334491 -.01616261  73210-3 -45740-2 0  9998
2 68004  42.9977  67.8289 0001796 269.1939  11.6987 15.92592897  2539
STARLINK-36910          
1 68005U 26039V   26066.58334491 -.01607560  72679-3 -44847-2 0  9996
2 68005  42.9975  67.8147 0001801 270.2537  16.0594 15.92864430  2533
STARLINK-36889          
1 68006U 26039W   26066.58334491 -.01600275  72274-3 -43984-2 0  9995
2 68006  42.9975  67.8018 0001830 271.1415  20.0815 15.93146148  2539
STARLINK-36592          
1 68007U 26039X   26066.58334491 -.01604544  72730-3 -43778-2 0  9997
2 68007  42.9972  67.7960 0001713 269.0977  24.6174 15.93286747  2539
STARLINK-36911          
1 68008U 26039Y   26066.58334491 -.01583324  71058-3 -42901-2 0  9999
2 68008  42.9975  67.7894 0001905 269.8269  26.5005 15.93413653  2536
STARLINK-36956          
1 68009U 26039Z   26066.58334491 -.01591792  71861-3 -42810-2 0  9999
2 68009  42.9972  67.7829 0001702 269.0641  29.7626 15.93556560  2532
STARLINK-36953          
1 68010U 26039AA  26066.58334491 -.01584821  71468-3 -42032-2 0  9995
2 68010  42.9971  67.7689 0001835 271.1856  33.0241 15.93818015  2533
STARLINK-36991          
1 68011U 26039AB  26066.58334491 -.01575141  70757-3 -41486-2 0  9993
2 68011  42.9971  67.7625 0001856 270.3451  36.5063 15.93946819  2533
STARLINK-36936          
1 68012U 26039AC  26066.58334491 -.01607344  73650-3 -41715-2 0  9995
2 68012  42.9971  67.7487 0001703 266.1561  45.8872 15.94228779  2536
STARLINK-36967          
1 68013U 26039AD  26066.58334491 -.01593222  72076-3 -42542-2 0  9995
2 68013  42.9970  67.7757 0001790 269.3071  32.1384 15.93691980  2537
STARLINK-36985          
1 68014U 26039AE  26066.58334491 -.01594033  72431-3 -41670-2 0  9993
2 68014  42.9971  67.7560 0001759 270.9452  38.4271 15.94090713  2539
STARLINK-36335          
1 68015U 26040A   26066.58334491 -.00880837  28859-3 -10185-2 0  9997
2 68015  97.2827  14.5473 0001200  95.5938  84.3867 16.08942491  2038
STARLINK-36923          
1 68016U 26040B   26066.58334491 -.00860809  27737-3 -98091-3 0  9992
2 68016  97.2828  14.5488 0001101  92.2971  90.9187 16.09168907  2083
STARLINK-36568          
1 68017U 26040C   26066.58334491 -.00868183  28219-3 -98247-3 0  9995
2 68017  97.2827  14.5495 0001087  91.4271  93.2804 16.09278360  2085
