[{"OBJECT_NAME":"STARLINK-36898","OBJECT_ID":"2026-039S","EPOCH":"2026-03-07T14:00:01.000224","MEAN_MOTION":15.92726809,"ECCENTRICITY":0.00018175,"INCLINATION":42.9975,"RA_OF_ASC_NODE":67.8213,"ARG_OF_PERICENTER":269.32,"MEAN_ANOMALY":14.3367,"EPHEMERIS_TYPE":0,"CLASSIFICATION_TYPE":"U","NORAD_CAT_ID":68002,"ELEMENT_SET_NO":999,"REV_AT_EPOCH":253,"BSTAR":-0.0045294205,"MEAN_MOTION_DOT":-0.01611832,"MEAN_MOTION_DDOT":0.00072936859},{"OBJECT_NAME":"STARLINK-36862","OBJECT_ID":"2026-039T","EPOCH":"2026-03-07T14:00:01.000224","MEAN_MOTION":15.9298424,"ECCENTRICITY":0.00016387,"INCLINATION":42.9975,"RA_OF_ASC_NODE":67.8085,"ARG_OF_PERICENTER":278.7007,"MEAN_ANOMALY":10.0427,"EPHEMERIS_TYPE":0,"CLASSIFICATION_TYPE":"U","NORAD_CAT_ID":68003,"ELEMENT_SET_NO":999,"REV_AT_EPOCH":253,"BSTAR":-0.0044048394,"MEAN_MOTION_DOT":-0.01589087,"MEAN_MOTION_DDOT":0.00071233182},{"OBJECT_NAME":"STARLINK-36888","OBJECT_ID":"2026-039U","EPOCH":"2026-03-07T14:00:01.000224","MEAN_MOTION":15.92592897,"ECCENTRICITY":0.00017963,"INCLINATION":42.9977,"RA_OF_ASC_NODE":67.8289,"ARG_OF_PERICENTER":269.1939,"MEAN_ANOMALY":11.6987,"EPHEMERIS_TYPE":0,"CLASSIFICATION_TYPE":"U","NORAD_CAT_ID":68004,"ELEMENT_SET_NO":999,"REV_AT_EPOCH":253,"BSTAR":-0.0045740492,"MEAN_MOTION_DOT":-0.01616261,"MEAN_MOTION_DDOT":0.00073210315},{"OBJECT_NAME":"STARLINK-36910","OBJECT_ID":"2026-039V","EPOCH":"2026-03-07T14:00:01.000224","MEAN_MOTION":15.9286443,"ECCENTRICITY":0.00018011,"INCLINATION":42.9975,"RA_OF_ASC_NODE":67.8147,"ARG_OF_PERICENTER":270.2537,"MEAN_ANOMALY":16.0594,"EPHEMERIS_TYPE":0,"CLASSIFICATION_TYPE":"U","NORAD_CAT_ID":68005,"ELEMENT_SET_NO":999,"REV_AT_EPOCH":253,"BSTAR":-0.0044847445,"MEAN_MOTION_DOT":-0.0160756,"MEAN_MOTION_DDOT":0.00072679348},{"OBJECT_NAME":"STARLINK-36889","OBJECT_ID":"2026-039W","EPOCH":"2026-03-07T14:00:01.000224","MEAN_MOTION":15.93146148,"ECCENTRICITY":0.00018308,"INCLINATION":42.9975,"RA_OF_ASC_NODE":67.8018,"ARG_OF_PERICENTER":271.1415,"MEAN_ANOMALY":20.0815,"EPHEMERIS_TYPE":0,"CLASSIFICATION_TYPE":"U","NORAD_CAT_ID":68006,"ELEMENT_SET_NO":999,"REV_AT_EPOCH":253,"BSTAR":-0.0043984148,"MEAN_MOTION_DOT":-0.01600275,"MEAN_MOTION_DDOT":0.0007227401},{"OBJECT_NAME":"STARLINK-36592","OBJECT_ID":"2026-039X","EPOCH":"2026-03-07T14:00:01.000224","MEAN_MOTION":15.93286747,"ECCENTRICITY":0.00017132,"INCLINATION":42.9972,"RA_OF_ASC_NODE":67.796,"ARG_OF_PERICENTER":269.0977,"MEAN_ANOMALY":24.6174,"EPHEMERIS_TYPE":0,"CLASSIFICATION_TYPE":"U","NORAD_CAT_ID":68007,"ELEMENT_SET_NO":999,"REV_AT_EPOCH":253,"BSTAR":-0.0043777787,"MEAN_MOTION_DOT":-0.01604544,"MEAN_MOTION_DDOT":0.00072730116},{"OBJECT_NAME":"STARLINK-36911","OBJECT_ID":"2026-039Y","EPOCH":"2026-03-07T14:00:01.000224","MEAN_MOTION":15.93413653,"ECCENTRICITY":0.00019057,"INCLINATION":42.9975,"RA_OF_ASC_NODE":67.7894,"ARG_OF_PERICENTER":269.8269,"MEAN_ANOMALY":26.5005,"EPHEMERIS_TYPE":0,"CLASSIFICATION_TYPE":"U","NORAD_CAT_ID":68008,"ELEMENT_SET_NO":999,"REV_AT_EPOCH":253,"BSTAR":-0.0042901282,"MEAN_MOTION_DOT":-0.01583324,"MEAN_MOTION_DDOT":0.00071058476},{"OBJECT_NAME":"STARLINK-36956","OBJECT_ID":"2026-039Z","EPOCH":"2026-03-07T14:00:01.000224","MEAN_MOTION":15.9355656,"ECCENTRICITY":0.00017029,"INCLINATION":42.9972,"RA_OF_ASC_NODE":67.7829,"ARG_OF_PERICENTER":269.0641,"MEAN_ANOMALY":29.7626,"EPHEMERIS_TYPE":0,"CLASSIFICATION_TYPE":"U","NORAD_CAT_ID":68009,"ELEMENT_SET_NO":999,"REV_AT_EPOCH":253,"BSTAR":-0.0042810048,"MEAN_MOTION_DOT":-0.01591792,"MEAN_MOTION_DDOT":0.0007186099},{"OBJECT_NAME":"STARLINK-36953","OBJECT_ID":"2026-039AA","EPOCH":"2026-03-07T14:00:01.000224","MEAN_MOTION":15.93818015,"ECCENTRICITY":0.00018356,"INCLINATION":42.9971,"RA_OF_ASC_NODE":67.7689,"ARG_OF_PERICENTER":271.1856,"MEAN_ANOMALY":33.0241,"EPHEMERIS_TYPE":0,"CLASSIFICATION_TYPE":"U","NORAD_CAT_ID":68010,"ELEMENT_SET_NO":999,"REV_AT_EPOCH":253,"BSTAR":-0.0042031854,"MEAN_MOTION_DOT":-0.01584821,"MEAN_MOTION_DDOT":0.00071467754},{"OBJECT_NAME":"STARLINK-36991","OBJECT_ID":"2026-039AB","EPOCH":"2026-03-07T14:00:01.000224","MEAN_MOTION":15.93946819,"ECCENTRICITY":0.00018568,"INCLINATION":42.9971,"RA_OF_ASC_NODE":67.7625,"ARG_OF_PERICENTER":270.3451,"MEAN_ANOMALY":36.5063,"EPHEMERIS_TYPE":0,"CLASSIFICATION_TYPE":"U","NORAD_CAT_ID":68011,"ELEMENT_SET_NO":999,"REV_AT_EPOCH":253,"BSTAR":-0.0041486456,"MEAN_MOTION_DOT":-0.01575141,"MEAN_MOTION_DDOT":0.00070756967},{"OBJECT_NAME":"STARLINK-36936","OBJECT_ID":"2026-039AC","EPOCH":"2026-03-07T14:00:01.000224","MEAN_MOTION":15.94228779,"ECCENTRICITY":0.00017039,"INCLINATION":42.9971,"RA_OF_ASC_NODE":67.7487,"ARG_OF_PERICENTER":266.1561,"MEAN_ANOMALY":45.8872,"EPHEMERIS_TYPE":0,"CLASSIFICATION_TYPE":"U","NORAD_CAT_ID":68012,"ELEMENT_SET_NO":999,"REV_AT_EPOCH":253,"BSTAR":-0.0041714711,"MEAN_MOTION_DOT":-0.01607344,"MEAN_MOTION_DDOT":0.00073649993},{"OBJECT_NAME":"STARLINK-36967","OBJECT_ID":"2026-039AD","EPOCH":"2026-03-07T14:00:01.000224","MEAN_MOTION":15.9369198,"ECCENTRICITY":0.00017907,"INCLINATION":42.997,"RA_OF_ASC_NODE":67.7757,"ARG_OF_PERICENTER":269.3071,"MEAN_ANOMALY":32.1384,"EPHEMERIS_TYPE":0,"CLASSIFICATION_TYPE":"U","NORAD_CAT_ID":68013,"ELEMENT_SET_NO":999,"REV_AT_EPOCH":253,"BSTAR":-0.0042541685,"MEAN_MOTION_DOT":-0.01593222,"MEAN_MOTION_DDOT":0.00072076467},{"OBJECT_NAME":"STARLINK-36985","OBJECT_ID":"2026-039AE","EPOCH":"2026-03-07T14:00:01.000224","MEAN_MOTION":15.94090713,"ECCENTRICITY":0.00017599,"INCLINATION":42.9971,"RA_OF_ASC_NODE":67.756,"ARG_OF_PERICENTER":270.9452,"MEAN_ANOMALY":38.4271,"EPHEMERIS_TYPE":0,"CLASSIFICATION_TYPE":"U","NORAD_CAT_ID":68014,"ELEMENT_SET_NO":999,"REV_AT_EPOCH":253,"BSTAR":-0.0041670418,"MEAN_MOTION_DOT":-0.01594033,"MEAN_MOTION_DDOT":0.00072430664},{"OBJECT_NAME":"STARLINK-36335","OBJECT_ID":"2026-040A","EPOCH":"2026-03-07T14:00:01.000224","MEAN_MOTION":16.08942491,"ECCENTRICITY":0.00012006,"INCLINATION":97.2827,"RA_OF_ASC_NODE":14.5473,"ARG_OF_PERICENTER":95.5938,"MEAN_ANOMALY":84.3867,"EPHEMERIS_TYPE":0,"CLASSIFICATION_TYPE":"U","NORAD_CAT_ID":68015,"ELEMENT_SET_NO":999,"REV_AT_EPOCH":203,"BSTAR":-0.0010185299,"MEAN_MOTION_DOT":-0.00880837,"MEAN_MOTION_DDOT":0.00028858849},{"OBJECT_NAME":"STARLINK-36923","OBJECT_ID":"2026-040B","EPOCH":"2026-03-07T14:00:01.000224","MEAN_MOTION":16.09168907,"ECCENTRICITY":0.0001101,"INCLINATION":97.2828,"RA_OF_ASC_NODE":14.5488,"ARG_OF_PERICENTER":92.2971,"MEAN_ANOMALY":90.9187,"EPHEMERIS_TYPE":0,"CLASSIFICATION_TYPE":"U","NORAD_CAT_ID":68016,"ELEMENT_SET_NO":999,"REV_AT_EPOCH":208,"BSTAR":-0.00098090785,"MEAN_MOTION_DOT":-0.00860809,"MEAN_MOTION_DDOT":0.00027736896},{"OBJECT_NAME":"STARLINK-36568","OBJECT_ID":"2026-040C","EPOCH":"2026-03-07T14:00:01.000224","MEAN_MOTION":16.0927836,"ECCENTRICITY":0.00010873,"INCLINATION":97.2827,"RA_OF_ASC_NODE":14.5495,"ARG_OF_PERICENTER":91.4271,"MEAN_ANOMALY":93.2804,"EPHEMERIS_TYPE":0,"CLASSIFICATION_TYPE":"U","NORAD_CAT_ID":68017,"ELEMENT_SET_NO":999,"REV_AT_EPOCH":208,"BSTAR":-0.00098246921,"MEAN_MOTION_DOT":-0.00868183,"MEAN_MOTION_DDOT":0.00028218589}]
